{
    "links": {
        "self": "http://www.neowsapp.com/rest/v1/neo/3617958?api_key=iIulBulltgU6a56xZRHN4H3l9WmuAYTsLGpBGhQ2"
    },
    "id": "3617958",
    "neo_reference_id": "3617958",
    "name": "(2012 VH77)",
    "designation": "2012 VH77",
    "nasa_jpl_url": "http://ssd.jpl.nasa.gov/sbdb.cgi?sstr=3617958",
    "absolute_magnitude_h": 27.3,
    "estimated_diameter": {
        "kilometers": {
            "estimated_diameter_min": 0.0092162655,
            "estimated_diameter_max": 0.0206081961
        },
        "meters": {
            "estimated_diameter_min": 9.216265485,
            "estimated_diameter_max": 20.6081961232
        },
        "miles": {
            "estimated_diameter_min": 0.0057267201,
            "estimated_diameter_max": 0.0128053354
        },
        "feet": {
            "estimated_diameter_min": 30.2370924539,
            "estimated_diameter_max": 67.6121941689
        }
    },
    "is_potentially_hazardous_asteroid": false,
    "close_approach_data": [
        {
            "close_approach_date": "2012-11-12",
            "close_approach_date_full": "2012-Nov-12 14:43",
            "epoch_date_close_approach": 1352731380000,
            "relative_velocity": {
                "kilometers_per_second": "11.8644947459",
                "kilometers_per_hour": "42712.1810850751",
                "miles_per_hour": "26539.6882970013"
            },
            "miss_distance": {
                "astronomical": "0.0028170925",
                "lunar": "1.0958489825",
                "kilometers": "421431.037592975",
                "miles": "261865.103914055"
            },
            "orbiting_body": "Moon"
        },
        {
            "close_approach_date": "2012-11-12",
            "close_approach_date_full": "2012-Nov-12 20:59",
            "epoch_date_close_approach": 1352753940000,
            "relative_velocity": {
                "kilometers_per_second": "11.2770772838",
                "kilometers_per_hour": "40597.4782217459",
                "miles_per_hour": "25225.6941761732"
            },
            "miss_distance": {
                "astronomical": "0.0013348238",
                "lunar": "0.5192464582",
                "kilometers": "199686.797305306",
                "miles": "124079.6221969828"
            },
            "orbiting_body": "Earth"
        }
    ],
    "orbital_data": {
        "orbit_id": "8",
        "orbit_determination_date": "2017-04-06 08:47:59",
        "first_observation_date": "2012-11-14",
        "last_observation_date": "2012-11-23",
        "data_arc_in_days": 9,
        "observations_used": 28,
        "orbit_uncertainty": "8",
        "minimum_orbit_intersection": ".000175984",
        "jupiter_tisserand_invariant": "4.116",
        "epoch_osculation": "2456249.5",
        "eccentricity": ".4780876638276694",
        "semi_major_axis": "1.666262721374803",
        "inclination": "2.756299927653853",
        "ascending_node_longitude": "50.36492819375078",
        "orbital_period": "785.6220134671017",
        "perihelion_distance": ".8696430695895885",
        "perihelion_argument": "308.869310165771",
        "aphelion_distance": "2.462882373160017",
        "perihelion_time": "2456206.321684589698",
        "mean_anomaly": "19.7858426587478",
        "mean_motion": ".4582356321855728",
        "equinox": "J2000",
        "orbit_class": {
            "orbit_class_type": "APO",
            "orbit_class_description": "Near-Earth asteroid orbits which cross the Earth’s orbit similar to that of 1862 Apollo",
            "orbit_class_range": "a (semi-major axis) > 1.0 AU; q (perihelion) < 1.017 AU"
        }
    },
    "is_sentry_object": false
}